STARLINK-6273           
1 56395U 23061X   24303.52663599  .00003799  00000+0  29609-3 0  9993
2 56395  43.0035   0.9306 0001049 257.3135 102.7590 15.02542076 82975
STARLINK-6302           
1 56396U 23061Y   24303.51775360  .00001370  00000+0  11647-3 0  9999
2 56396  43.0020   0.8628 0001047 267.2268  92.8454 15.02543836 82558
STARLINK-6271           
1 56397U 23061Z   24303.52884874  .00000431  00000+0  46937-4 0  9990
2 56397  43.0035   0.9487 0000920 245.0659 115.0088 15.02546479 82261
STARLINK-6288           
1 56398U 23061AA  24303.51443155  .00002535  00000+0  20270-3 0  9991
2 56398  43.0022   0.8412 0000721 296.0692  64.0076 15.02532137 82263
STARLINK-6277           
1 56399U 23061AB  24303.51997711  .00005580  00000+0  42774-3 0  9990
2 56399  43.0033   0.8803 0001207 223.6826 136.3921 15.02541194 82260
STARLINK-6267           
1 56400U 23061AC  24303.50887905  .00003370  00000+0  26443-3 0  9995
2 56400  43.0031   0.7996 0001373 270.4259  89.6426 15.02535503 82264
STARLINK-6256           
1 56401U 23061AD  24303.18451460  .00001140  00000+0  99438-4 0  9991
2 56401  43.0035 349.6569 0000728 270.6389  89.4370 15.02541377 82362
STARLINK-6284           
1 56403U 23061AF  24303.51108618 -.00006428  00000+0 -46087-3 0  9991
2 56403  43.0049   0.8134 0001412 224.2880 135.7849 15.02563774 82557
STARLINK-6287           
1 56404U 23061AG  24303.50001202 -.00000365  00000+0 -11903-4 0  9996
2 56404  43.0069   0.7288 0002165 268.8634  91.1961 15.02537055 82267
STARLINK-6285           
1 56405U 23061AH  24303.50554955 -.00000313  00000+0 -81285-5 0  9999
2 56405  43.0041   0.7704 0001140 248.9381 111.1339 15.02530089 82555
STARLINK-6283           
1 56406U 23061AJ  24302.89282169  .00000472  00000+0  49972-4 0  9996
2 56406  43.0032   3.9129 0000919 272.6525  87.4212 15.02533438 82173
STARLINK-6282           
1 56407U 23061AK  24303.50221509  .00008780  00000+0  66397-3 0  9996
2 56407  43.0023   0.7443 0001119 282.7935  77.2782 15.02549896 82262
STARLINK-6289           
1 56408U 23061AL  24302.88505831  .00000621  00000+0  61038-4 0  9994
2 56408  43.0032   3.8437 0001268 276.4597  83.6100 15.02538902 82462
STARLINK-6241           
1 56409U 23061AM  24303.43018696 -.00000084  00000+0  88515-5 0  9999
2 56409  43.0029   1.0626 0000740 255.3363 104.7397 15.02536507 82259
STARLINK-6281           
1 56410U 23061AN  24302.88394273  .00025720  00000+0  19116-2 0  9998
2 56410  43.0036   3.8434 0001226 253.7922 106.2785 15.02545538 82464
STARLINK-6279           
1 56411U 23061AP  24303.49445157  .00001870  00000+0  15342-3 0  9993
2 56411  43.0030   0.6872 0000661 269.2975  90.7792 15.02542584 82263
STARLINK-6278           
1 56412U 23061AQ  24303.47669359  .00012128  00000+0  91112-3 0  9991
2 56412  43.0043   0.5514 0001030 280.8342  79.2385 15.02544651 82557
STARLINK-6258           
1 56413U 23061AR  24303.48557357  .00000106  00000+0  22888-4 0  9995
2 56413  43.0046   0.6183 0001301 271.9152  88.1541 15.02530523 82269
STARLINK-5136           
1 56414U 23061AS  24303.47223919  .00000416  00000+0  45832-4 0  9997
2 56414  43.0041   0.5184 0000341 269.8982  90.1821 15.02553960 82269
STARLINK-6268           
1 56415U 23061AT  24303.48001909  .00012042  00000+0  90460-3 0  9996
2 56415  43.0050   0.5799 0001172 269.6883  90.3825 15.02552476 82260
STARLINK-6260           
1 56416U 23061AU  24303.52356392  .00003173  00000+0  24979-3 0  9998
2 56416  43.0021 347.8998 0001020 268.9049  91.1677 15.02543308 82410
STARLINK-6261           
1 56417U 23061AV  24303.20744135  .00000075  00000+0  20607-4 0  9993
2 56417  43.0085   1.9701 0001579 269.5361  90.5301 15.02543114 82225
STARLINK-5356           
1 56418U 23061AW  24303.44265672  .00003488  00000+0  27311-3 0  9993
2 56418  43.0033 348.1506 0000966 258.6023 101.4711 15.02543473 82406
STARLINK-5350           
1 56419U 23061AX  24303.47003236  .00000293  00000+0  36801-4 0  9999
2 56419  43.0067   0.5012 0001431 262.4629  97.6051 15.02532185 82263
STARLINK-6272           
1 56420U 23061AY  24303.50580361  .00001248  00000+0  10746-3 0  9994
2 56420  43.0041 347.7629 0001335 269.9180  90.1509 15.02530350 82419
STARLINK-6270           
1 56421U 23061AZ  24303.52578071  .00003623  00000+0  28319-3 0  9996
2 56421  43.0030 347.9119 0001128 263.0552  97.0162 15.02532845 82414
STARLINK-6236           
1 56422U 23061BA  24303.50026681 -.00002230  00000+0 -15012-3 0  9991
2 56422  43.0033 347.7220 0001032 266.7927  93.2797 15.02530398 82412
STARLINK-6239           
1 56423U 23061BB  24303.50247156  .00002850  00000+0  22592-3 0  9991
2 56423  43.0034 347.7390 0000607 258.5597 101.5177 15.02537421 82410
STARLINK-6242           
1 56424U 23061BC  24303.49358773  .00002603  00000+0  20758-3 0  9996
2 56424  43.0029 347.6719 0001235 262.7915  97.2787 15.02554818 82707
STARLINK-6224           
1 56425U 23061BD  24303.49692411  .00000438  00000+0  47509-4 0  9995
2 56425  43.0043 347.6965 0000863 266.4698  93.6046 15.02540020 82418
STARLINK-5352           
1 56426U 23061BE  24303.40725100  .00001515  00000+0  12716-3 0  9997
2 56426  42.9983 348.7270 0000581 156.0045 204.0824 15.02546511 82398
STARLINK-5724           
1 56427U 23061BF  24303.46263274 -.00000375  00000+0 -12711-4 0  9994
2 56427  43.0054 348.2892 0001451 268.0083  92.0594 15.02540457 82402
STARLINK-6238           
1 56428U 23061BG  24303.48582861  .00007770  00000+0  58955-3 0  9996
2 56428  43.0056 347.6135 0001221 239.3030 120.7692 15.02539078 82412
STARLINK-6264           
1 56429U 23061BH  24303.48249751  .00001135  00000+0  99121-4 0  9995
2 56429  43.0051 347.5864 0001206 265.4025  94.6679 15.02533102 82419
STARLINK-5990           
1 56448U 23064A   24303.45841837  .00010927  00000+0  92304-3 0  9993
2 56448  69.9988 315.7021 0002571 269.6782  90.4082 14.98293849 80910
STARLINK-5993           
1 56449U 23064B   24303.47912289  .00002289  00000+0  19949-3 0  9992
2 56449  69.9986 315.7717 0002958 272.5883  87.4937 14.98342875 80914
STARLINK-5970           
1 56450U 23064C   24303.45423570  .00001222  00000+0  11016-3 0  9995
2 56450  69.9984 315.6869 0002977 268.4765  91.6053 14.98336635 80918
STARLINK-5985           
1 56451U 23064D   24303.47494074  .00000285  00000+0  31685-4 0  9998
2 56451  69.9991 315.7584 0002912 270.4190  89.6635 14.98336115 80912
STARLINK-5986           
1 56452U 23064E   24303.47076033 -.00002757  00000+0 -22329-3 0  9992
2 56452  69.9987 315.7424 0003238 266.8866  93.1922 14.98338330 80912
STARLINK-5935           
1 56453U 23064F   24303.33307296  .00000389  00000+0  40408-4 0  9992
2 56453  69.9988 316.0648 0002967 265.8755  94.2064 14.98334702 80895
STARLINK-5959           
1 56454U 23064G   24303.31220908 -.00000209  00000+0 -97125-5 0  9997
2 56454  69.9984 315.9938 0003534 274.5327  85.5428 14.98343083 80894
STARLINK-5987           
1 56455U 23064H   24303.44154774  .00000414  00000+0  42502-4 0  9993
2 56455  69.9988 315.6400 0002960 266.3849  93.6971 14.98333362 80915
STARLINK-5995           
1 56456U 23064J   24303.32054955  .00001210  00000+0  10918-3 0  9991
2 56456  69.9985 316.0221 0002911 266.4485  93.6341 14.98336523 80892
STARLINK-5994           
1 56457U 23064K   24303.44588840 -.00000881  00000+0 -65992-4 0  9998
2 56457  69.9986 315.6566 0003380 277.8463  82.2313 14.98342308 80918
STARLINK-6050           
1 56458U 23064L   24303.45824046  .00000766  00000+0  71987-4 0  9992
2 56458  69.9988 315.6994 0002979 268.8781  91.2037 14.98337914 80912
STARLINK-6048           
1 56459U 23064M   24303.29149569 -.00000279  00000+0 -15563-4 0  9994
2 56459  69.9989 315.9199 0003055 271.1416  88.9393 14.98335497 80891
STARLINK-6047           
1 56460U 23064N   24303.43737460  .00000270  00000+0  30396-4 0  9995
2 56460  69.9985 315.6273 0002918 271.9602  88.1223 14.98333270 80915
STARLINK-6037           
1 56461U 23064P   24303.48743388  .00000681  00000+0  64849-4 0  9993
2 56461  69.9987 315.3969 0003020 272.2713  87.8100 14.98337377 80922
STARLINK-6045           
1 56462U 23064Q   24303.64152060 -.00000558  00000+0 -38958-4 0  9990
2 56462  69.9997 274.9625 0002653 273.9056  86.1800 14.98331112 82294
STARLINK-6051           
1 56463U 23064R   24303.46241466  .00001525  00000+0  13550-3 0  9993
2 56463  69.9990 315.7073 0003036 268.5321  91.5490 14.98340849 80919
STARLINK-6043           
1 56464U 23064S   24303.29967803  .00000695  00000+0  66025-4 0  9998
2 56464  69.9986 315.9485 0002778 261.9266  98.1578 14.98334408 80892
STARLINK-6054           
1 56465U 23064T   24303.31590829 -.00000281  00000+0 -15737-4 0  9999
2 56465  70.0003 275.8292 0002745 270.5605  89.5239 14.98327777 81882
STARLINK-6053           
1 56466U 23064U   24303.29133083  .00000595  00000+0  57664-4 0  9993
2 56466  69.9993 315.9197 0003002 267.0559  93.0257 14.98330025 80894
STARLINK-6055           
1 56467U 23064V   24303.31197419 -.00001789  00000+0 -14211-3 0  9998
2 56467  69.9990 296.1191 0002777 270.3477  89.7364 14.98339786 81389
STARLINK-5998           
1 56468U 23064W   24303.48327199 -.00001323  00000+0 -10310-3 0  9997
2 56468  70.0005 315.3872 0002650 257.2717 102.8146 14.98334820 80929
STARLINK-5518           
1 56469U 23064X   24303.39126459 -.00000030  00000+0  52919-5 0  9990
2 56469  69.9983 295.9964 0002839 267.1962  92.8872 14.98331008 81399
STARLINK-5523           
1 56470U 23064Y   24303.31615120  .00001580  00000+0  14017-3 0  9997
2 56470  69.9985 296.1354 0002716 262.9940  97.0910 14.98336008 81386
STARLINK-5521           
1 56471U 23064Z   24303.37457362  .00000781  00000+0  73175-4 0  9999
2 56471  69.9988 295.9365 0002766 265.2067  94.8776 14.98351466 81751
STARLINK-5038           
1 56472U 23064AA  24303.37474373  .00002729  00000+0  23644-3 0  9990
2 56472  70.0000 295.9377 0003068 265.5755  94.5053 14.98333252 81754
